{
"type": "FeatureCollection",
"features": [
    {
"type": "Feature",
"properties": { "name": "CSE LH-01", "level": 1 },
"geometry": {
        "type": "Polygon",
        "coordinates": [         [
            [76.83428462392584, 17.315581697763236],
            [76.83432376280945, 17.315585634618785],
            [76.83432611259713, 17.315475308457223],
            [76.83428344026936, 17.315475308457223],
            [76.83428462392584, 17.315581697763236]          ]
        ]
}
    },
    {
"type": "Feature",
"properties": { "name": "CSE CAD LAB", "level": 1 },
"geometry": {
        "type": "Polygon",
        "coordinates": [
[
            [76.8339698570478, 17.315430894910605],
            [76.83396901020615, 17.3155204158666],
            [76.83385774981195, 17.31551958583772],
            [76.83386231854291, 17.31543008241998],
            [76.8339698570478, 17.315430894910605]
]
        ]
}
    }
]
}
